{"type":"FeatureCollection","features":[{"type":"Feature","properties":{"city":"alphen","half":"out","waypoints":8,"from_t":"13:51","to_t":"14:09","km":2.04},"geometry":{"type":"LineString","coordinates":[[4.657076,52.124848],[4.657303,52.124937],[4.657373,52.124964],[4.657409,52.124978],[4.657795,52.125126],[4.657998,52.125207],[4.658215,52.125294],[4.658315,52.125304],[4.658384,52.125305],[4.65844,52.125307],[4.658544,52.125312],[4.658604,52.125311],[4.658663,52.125312],[4.658861,52.125322],[4.659359,52.125348],[4.659354,52.125391],[4.65931,52.125765],[4.659289,52.125869],[4.659574,52.125886],[4.659587,52.125785],[4.661893,52.125924],[4.661915,52.125795],[4.661905,52.125743],[4.661924,52.125617],[4.661938,52.125513],[4.661975,52.125446],[4.662423,52.125437],[4.662432,52.125437],[4.662549,52.125442],[4.662543,52.125477],[4.662536,52.125507],[4.662527,52.125544],[4.662582,52.125548],[4.663062,52.125582],[4.663206,52.125591],[4.663328,52.1256],[4.663466,52.12561],[4.663459,52.125715],[4.663448,52.125838],[4.663419,52.125996],[4.663406,52.126073],[4.663344,52.126439],[4.663307,52.126503],[4.66319,52.127028],[4.663172,52.127223],[4.663192,52.127584],[4.663221,52.127815],[4.66323,52.127888],[4.663257,52.128117],[4.663266,52.128194],[4.663313,52.128792],[4.663417,52.129046],[4.663463,52.129393],[4.663471,52.129574],[4.663476,52.129691],[4.663477,52.129839],[4.663484,52.129995],[4.663566,52.130194],[4.663579,52.130218],[4.663664,52.130376],[4.663675,52.130446],[4.66369,52.130545],[4.663691,52.13056],[4.663697,52.130636],[4.663716,52.130888],[4.663727,52.131202],[4.663728,52.131251],[4.663721,52.131708],[4.663762,52.132255],[4.663767,52.13276],[4.663744,52.132927],[4.663695,52.133287],[4.663626,52.133673],[4.663606,52.134242],[4.663639,52.134426],[4.663709,52.134584],[4.663901,52.134593],[4.664772,52.134625],[4.664973,52.13465],[4.6651,52.134665],[4.6658,52.1348],[4.66611,52.134852],[4.666288,52.134869],[4.666665,52.134884],[4.666511,52.134994],[4.665838,52.134897],[4.665518,52.134865],[4.66499,52.134864],[4.664538,52.134841],[4.663925,52.134829],[4.663335,52.134824],[4.663133,52.134822]]}},{"type":"Feature","properties":{"city":"alphen","half":"back","waypoints":4,"from_t":"14:09","to_t":"14:17","km":1.44},"geometry":{"type":"LineString","coordinates":[[4.662759,52.13487],[4.662758,52.13491],[4.662619,52.134908],[4.661944,52.13489],[4.661901,52.134889],[4.661818,52.134887],[4.661824,52.134704],[4.661845,52.134075],[4.661855,52.133767],[4.66185,52.133599],[4.661849,52.133517],[4.661854,52.133327],[4.661879,52.133088],[4.661905,52.132946],[4.661978,52.132717],[4.661985,52.132694],[4.662032,52.132459],[4.66206,52.132207],[4.662057,52.132172],[4.662064,52.132143],[4.662118,52.132078],[4.662119,52.131804],[4.662118,52.131758],[4.66212,52.131478],[4.662071,52.131421],[4.662073,52.131353],[4.662069,52.131288],[4.662026,52.131243],[4.662026,52.131198],[4.662021,52.130825],[4.662047,52.130681],[4.662043,52.130612],[4.661999,52.130459],[4.661963,52.130351],[4.66181,52.129927],[4.661797,52.1294],[4.6616,52.129399],[4.661598,52.129155],[4.661597,52.129113],[4.661595,52.128984],[4.661592,52.128944],[4.661583,52.128803],[4.661588,52.128467],[4.661602,52.127613],[4.661671,52.127121],[4.661683,52.127036],[4.661694,52.126963],[4.661561,52.126974],[4.660912,52.126938],[4.660867,52.126935],[4.660559,52.12692],[4.660112,52.126899],[4.65972,52.126881],[4.659452,52.126869],[4.659264,52.126829],[4.659205,52.126819],[4.659196,52.126778],[4.659172,52.126738],[4.659144,52.126702],[4.659099,52.126673],[4.659046,52.12665],[4.658988,52.126632],[4.658931,52.126623],[4.658881,52.12662],[4.658833,52.126623],[4.658834,52.126587],[4.658832,52.126563],[4.658829,52.126454],[4.658819,52.126387],[4.658794,52.126318],[4.658697,52.126141],[4.658536,52.125939],[4.658502,52.125883],[4.658472,52.125835],[4.658432,52.125746],[4.6584,52.125655],[4.658399,52.12557],[4.658409,52.1255],[4.658417,52.125437],[4.658426,52.125369],[4.65844,52.125307],[4.658384,52.125305],[4.658315,52.125304],[4.658215,52.125294],[4.657795,52.125126],[4.657409,52.124978],[4.657373,52.124964],[4.657303,52.124937],[4.657076,52.124848]]}},{"type":"Feature","properties":{"city":"leiden","half":"out","waypoints":10,"from_t":"14:38","to_t":"15:03","km":2.19},"geometry":{"type":"LineString","coordinates":[[4.482246,52.166284],[4.482271,52.166273],[4.482519,52.166127],[4.482696,52.166038],[4.482872,52.165949],[4.4829,52.165936],[4.482671,52.165763],[4.482546,52.165668],[4.482494,52.165628],[4.48242,52.165622],[4.482284,52.165605],[4.482159,52.165578],[4.482003,52.16553],[4.481863,52.165462],[4.481796,52.16542],[4.481576,52.16526],[4.481547,52.165223],[4.48148,52.165137],[4.481379,52.165013],[4.481287,52.164954],[4.48125,52.164919],[4.481186,52.164875],[4.481239,52.164828],[4.481271,52.164752],[4.481312,52.164711],[4.481349,52.164688],[4.48163,52.164553],[4.481663,52.164535],[4.481762,52.16461],[4.482041,52.164821],[4.482417,52.165106],[4.482981,52.165532],[4.483019,52.165568],[4.483134,52.165676],[4.483183,52.165717],[4.483238,52.165742],[4.483314,52.165756],[4.483337,52.165756],[4.483442,52.165736],[4.483509,52.165705],[4.483553,52.165674],[4.483589,52.165637],[4.483739,52.165412],[4.483949,52.165115],[4.483949,52.165115],[4.483967,52.165053],[4.48397,52.165003],[4.48413,52.164559],[4.484163,52.164407],[4.48417,52.164388],[4.48423,52.16429],[4.484285,52.16413],[4.484322,52.164025],[4.484347,52.163953],[4.484359,52.163894],[4.484368,52.163819],[4.484384,52.16369],[4.484482,52.163698],[4.484533,52.163646],[4.484621,52.163627],[4.484713,52.163637],[4.484958,52.163714],[4.484993,52.163673],[4.485318,52.163786],[4.485715,52.163903],[4.485824,52.16388],[4.486,52.163795],[4.486,52.163795],[4.486121,52.163738],[4.486182,52.163711],[4.486144,52.163581],[4.486013,52.163166],[4.485965,52.163012],[4.485966,52.162907],[4.486002,52.162827],[4.486009,52.162803],[4.485829,52.16277],[4.485737,52.162792],[4.485423,52.162791],[4.484786,52.162787],[4.484721,52.162787],[4.484582,52.162771],[4.484609,52.162678],[4.484694,52.162271],[4.484757,52.161964],[4.4848,52.1619],[4.484872,52.161858],[4.485071,52.161806],[4.485147,52.161791],[4.48524,52.161772],[4.485569,52.161706],[4.485554,52.161674],[4.485493,52.16154],[4.485432,52.161366],[4.485431,52.16136],[4.485406,52.161215],[4.485593,52.161179],[4.485729,52.161152],[4.486734,52.160939],[4.486827,52.160913],[4.48888,52.160347],[4.489171,52.160751],[4.488535,52.160922],[4.488918,52.161107],[4.489201,52.161228],[4.489332,52.16128],[4.489576,52.161201],[4.489801,52.161041],[4.490376,52.161116],[4.490532,52.161146],[4.490628,52.161066],[4.490619,52.161021],[4.490833,52.160814],[4.490997,52.160642],[4.49104,52.160562],[4.491053,52.160511],[4.491056,52.160375],[4.490999,52.16026],[4.490809,52.159859],[4.490754,52.159813],[4.490701,52.159781],[4.490666,52.15977],[4.490623,52.159755],[4.490527,52.159727],[4.490415,52.159694],[4.490307,52.159655],[4.490234,52.159625],[4.49051,52.159464],[4.489896,52.159174],[4.489403,52.158934],[4.489705,52.15869],[4.490022,52.158437],[4.489898,52.158382]]}},{"type":"Feature","properties":{"city":"leiden","half":"back","waypoints":7,"from_t":"15:03","to_t":"15:29","km":1.3},"geometry":{"type":"LineString","coordinates":[[4.489891,52.158379],[4.490022,52.158437],[4.489705,52.15869],[4.489403,52.158934],[4.489163,52.159114],[4.488958,52.159238],[4.488573,52.159454],[4.488099,52.159671],[4.487664,52.15982],[4.487663,52.15982],[4.487408,52.15988],[4.487117,52.159946],[4.486934,52.159979],[4.486502,52.160042],[4.485931,52.160087],[4.485214,52.16019],[4.485107,52.160202],[4.484999,52.160213],[4.485176,52.160635],[4.485218,52.16072],[4.485272,52.160835],[4.485293,52.16092],[4.485305,52.160941],[4.485381,52.16109],[4.485406,52.161215],[4.485431,52.16136],[4.485432,52.161366],[4.485493,52.16154],[4.485554,52.161674],[4.485569,52.161706],[4.485602,52.161774],[4.485808,52.162199],[4.485916,52.162477],[4.485937,52.162544],[4.485958,52.162617],[4.485998,52.162751],[4.486009,52.162803],[4.486002,52.162827],[4.485966,52.162907],[4.485965,52.163012],[4.486013,52.163166],[4.486049,52.163281],[4.486144,52.163581],[4.486182,52.163711],[4.486209,52.163808],[4.486187,52.163884],[4.4862,52.163932],[4.486208,52.163963],[4.486242,52.164041],[4.486234,52.164118],[4.486198,52.164118],[4.486095,52.164128],[4.485983,52.164122],[4.485872,52.164125],[4.485721,52.16414],[4.485685,52.16414],[4.485571,52.164138],[4.485485,52.164132],[4.485278,52.164089],[4.485023,52.16403],[4.484736,52.163981],[4.484608,52.163949],[4.484422,52.163908],[4.484399,52.16397],[4.484377,52.164043],[4.484346,52.164147],[4.484285,52.16442],[4.484171,52.164787],[4.484073,52.165024],[4.484002,52.165163],[4.483829,52.165423],[4.483707,52.16559],[4.483593,52.165746],[4.483413,52.16583],[4.483396,52.165839],[4.483017,52.166032],[4.4829,52.165936],[4.482872,52.165949],[4.482696,52.166038],[4.482619,52.166077]]}}]}