{"type":"FeatureCollection","features":[{"type":"Feature","properties":{"n":1,"name":"Meijersplein","arrive":"metro","key":"meijersplein","note":"Metro E station (RandstadRail), Rotterdam Schiebroek"},"geometry":{"type":"Point","coordinates":[4.46268,51.95585]}},{"type":"Feature","properties":{"n":2,"name":"Den Haag Centraal","arrive":"metro","key":"denhaag_cs","note":""},"geometry":{"type":"Point","coordinates":[4.32455,52.08084]}},{"type":"Feature","properties":{"n":3,"name":"Bierkade","arrive":"tram","key":"bierkade","note":""},"geometry":{"type":"Point","coordinates":[4.3182,52.07452]}},{"type":"Feature","properties":{"n":4,"name":"Kerkplein","arrive":"walk","key":"kerkplein","note":""},"geometry":{"type":"Point","coordinates":[4.30693,52.07772]}},{"type":"Feature","properties":{"n":5,"name":"HTM transport museum","arrive":"tram","key":"ov_museum","note":""},"geometry":{"type":"Point","coordinates":[4.30914,52.06223]}},{"type":"Feature","properties":{"n":6,"name":"Kurhaus","arrive":"tram","key":"kurhaus","note":""},"geometry":{"type":"Point","coordinates":[4.28367,52.11327]}},{"type":"Feature","properties":{"n":7,"name":"Summertime","arrive":"walk","key":"summertime","note":""},"geometry":{"type":"Point","coordinates":[4.28005,52.11344]}},{"type":"Feature","properties":{"n":8,"name":"Malieveld","arrive":"tram","key":"malieveld","note":""},"geometry":{"type":"Point","coordinates":[4.31737,52.08363]}},{"type":"Feature","properties":{"n":9,"name":"Koekamp deer park","arrive":"walk","key":"koekamp","note":""},"geometry":{"type":"Point","coordinates":[4.3224,52.08391]}},{"type":"Feature","properties":{"n":10,"name":"Binnenhof","arrive":"walk","key":"binnenhof","note":""},"geometry":{"type":"Point","coordinates":[4.31237,52.07933]}},{"type":"Feature","properties":{"n":11,"name":"Grote Markt","arrive":"walk","key":"grote_markt","note":""},"geometry":{"type":"Point","coordinates":[4.30912,52.07548]}},{"type":"Feature","properties":{"n":12,"name":"Prinsenhof","arrive":"tram","key":"prinsenhof","note":""},"geometry":{"type":"Point","coordinates":[4.35338,52.011725]}},{"type":"Feature","properties":{"n":13,"name":"Lakila","arrive":"walk","key":"lakila","note":""},"geometry":{"type":"Point","coordinates":[4.36099,52.01287]}},{"type":"Feature","properties":{"n":14,"name":"Delft station","arrive":"walk","key":"delft_station","note":""},"geometry":{"type":"Point","coordinates":[4.35658,52.00755]}},{"type":"Feature","properties":{"n":15,"name":"Rotterdam Centraal","arrive":"train","key":"rotterdam_cs","note":""},"geometry":{"type":"Point","coordinates":[4.46893,51.92502]}},{"type":"Feature","properties":{"n":16,"name":"Wilgenlei","arrive":"tram","key":"wilgenlei","note":""},"geometry":{"type":"Point","coordinates":[4.47279,51.95519]}}]}