{"type":"FeatureCollection","features":[{"type":"Feature","properties":{"n":1,"name":"Teldersweg","arrive":"tram","key":"teldersweg","note":"Tram 8 stop, Schiebroek"},"geometry":{"type":"Point","coordinates":[4.469193,51.952657]}},{"type":"Feature","properties":{"n":2,"name":"Provenierssingel","arrive":"tram","key":"provenierssingel","note":"Tram 8 stop behind Rotterdam Centraal"},"geometry":{"type":"Point","coordinates":[4.472558,51.928108]}},{"type":"Feature","properties":{"n":3,"name":"Oasis","arrive":"walk","key":"oasis","note":"Restaurant, formerly Mecca"},"geometry":{"type":"Point","coordinates":[4.48054,51.93005]}},{"type":"Feature","properties":{"n":4,"name":"Round & Round","arrive":"walk","key":"round_round","note":""},"geometry":{"type":"Point","coordinates":[4.49305,51.92277]}},{"type":"Feature","properties":{"n":5,"name":"Bikes","arrive":"walk","key":"bikes","note":"Picked up the bikes, 25 m north of Koestraat"},"geometry":{"type":"Point","coordinates":[4.493547,51.920138]}},{"type":"Feature","properties":{"n":6,"name":"Fenix Plein","arrive":"bike","key":"fenixplein","note":"Parked the bikes here, and picked them up again"},"geometry":{"type":"Point","coordinates":[4.485469,51.90204]}},{"type":"Feature","properties":{"n":7,"name":"Fenix museum","arrive":"walk","key":"fenix","note":""},"geometry":{"type":"Point","coordinates":[4.48432,51.90208]}},{"type":"Feature","properties":{"n":8,"name":"Kaapse Brouwers","arrive":"walk","key":"kaapse","note":"At the Fenix Food Factory, Katendrecht"},"geometry":{"type":"Point","coordinates":[4.48665,51.90207]}},{"type":"Feature","properties":{"n":9,"name":"Mobrigado","arrive":"bike","key":"mobrigado","note":""},"geometry":{"type":"Point","coordinates":[4.48648,51.92654]}},{"type":"Feature","properties":{"n":10,"name":"Noah's Bakery","arrive":"walk","key":"noahs","note":""},"geometry":{"type":"Point","coordinates":[4.48263,51.93156]}},{"type":"Feature","properties":{"n":11,"name":"Bikes again","arrive":"walk","key":"bikes2","note":"Second bikes, across the road from Wolly"},"geometry":{"type":"Point","coordinates":[4.4857,51.930779]}},{"type":"Feature","properties":{"n":12,"name":"Wilgenlei","arrive":"bike","key":"wilgenlei","note":"Home stretch, at Ringdijk"},"geometry":{"type":"Point","coordinates":[4.47689,51.95341]}}]}